[{"OBJECT_NAME":"JILIN-1 GAOFEN 2D","OBJECT_ID":"2021-086A","EPOCH":"2026-03-09T21:43:54.183072","MEAN_MOTION":15.09714905,"ECCENTRICITY":0.00351294,"INCLINATION":97.632,"RA_OF_ASC_NODE":191.8747,"ARG_OF_PERICENTER":123.7982,"MEAN_ANOMALY":236.66,"EPHEMERIS_TYPE":0,"CLASSIFICATION_TYPE":"U","NORAD_CAT_ID":49256,"ELEMENT_SET_NO":999,"REV_AT_EPOCH":24573,"BSTAR":0.00040994132,"MEAN_MOTION_DOT":6.64e-5,"MEAN_MOTION_DDOT":0},{"OBJECT_NAME":"STARLINK-4187","OBJECT_ID":"2022-062W","EPOCH":"2026-03-09T06:53:54.085056","MEAN_MOTION":15.08839208,"ECCENTRICITY":0.00014375,"INCLINATION":53.2184,"RA_OF_ASC_NODE":36.2847,"ARG_OF_PERICENTER":89.146,"MEAN_ANOMALY":270.9696,"EPHEMERIS_TYPE":0,"CLASSIFICATION_TYPE":"U","NORAD_CAT_ID":52850,"ELEMENT_SET_NO":999,"REV_AT_EPOCH":20572,"BSTAR":-5.462073e-5,"MEAN_MOTION_DOT":-1.157e-5,"MEAN_MOTION_DDOT":0}]
